NORAD_CAT_ID,OBJECT_NAME,OBJECT_TYPE,EPOCH,MEAN_MOTION,ECCENTRICITY,INCLINATION,RA_OF_ASC_NODE,ARG_OF_PERICENTER,MEAN_ANOMALY,BSTAR,MEAN_MOTION_DOT,MEAN_MOTION_DDOT,TLE_LINE0,TLE_LINE1,TLE_LINE2,SEMIMAJOR_AXIS,PERIOD,APOGEE,PERIGEE,DECAYED
52367.0,STARLINK-3817,PAYLOAD,2022-11-09 13:08:55,15.08854054,0.0002934,53.2159,248.5844,27.545,332.5698,0.00023104,3.392e-05,0.0,0 STARLINK-3817,1 52367U 22045AN  22313.54786379  .00003392  00000-0  23104-3 0  9996,2 52367  53.2159 248.5844 0002934  27.5450 332.5698 15.08854054 32322,6917.837,95.437,541.732,537.673,0.0
52367.0,STARLINK-3817,PAYLOAD,2022-11-10 05:02:47,15.08839919,0.0002633,53.2153,245.611,26.1872,333.9253,-7.2043e-05,-1.435e-05,0.0,0 STARLINK-3817,1 52367U 22045AN  22314.21027498 -.00001435  00000-0 -72043-4 0  9996,2 52367  53.2153 245.6110 0002633  26.1872 333.9253 15.08839919 32425,6917.880999999999,95.438,541.567,537.924,0.0
52367.0,STARLINK-3817,PAYLOAD,2022-11-11 01:42:50,15.08833311,0.0002628999999999,53.2152,241.7439,29.7715,330.3426,-0.00024755,-4.226e-05,0.0,0 STARLINK-3817,1 52367U 22045AN  22315.07141328 -.00004226  00000-0 -24755-3 0  9997,2 52367  53.2152 241.7439 0002629  29.7715 330.3426 15.08833311 32552,6917.901,95.438,541.585,537.947,0.0
52367.0,STARLINK-3817,PAYLOAD,2022-11-11 19:12:04,15.08818782,0.0002702,53.2158,238.4746,28.5087,331.6053,0.00029867,4.466e-05,0.0,0 STARLINK-3817,1 52367U 22045AN  22315.80005533  .00004466  00000-0  29867-3 0  9998,2 52367  53.2158 238.4746 0002702  28.5087 331.6053 15.08818782 32660,6917.945,95.439,541.679,537.941,0.0
52367.0,STARLINK-3817,PAYLOAD,2022-11-12 04:44:24,15.08830298,0.0002901999999999,53.2164,236.6927,24.5434,335.5696,0.00055177,8.502e-05,0.0,0 STARLINK-3817,1 52367U 22045AN  22316.19750132  .00008502  00000-0  55177-3 0  9991,2 52367  53.2164 236.6927 0002902  24.5434 335.5696 15.08830298 32721,6917.91,95.438,541.783,537.7669999999998,0.0
52367.0,STARLINK-3817,PAYLOAD,2022-11-12 06:19:47,15.08830484,0.0002676,53.2152,236.3927,31.8664,328.249,0.00037008,5.605e-05,0.0,0 STARLINK-3817,1 52367U 22045AN  22316.26374107  .00005605  00000-0  37008-3 0  9997,2 52367  53.2152 236.3927 0002676  31.8664 328.2490 15.08830484 32738,6917.909000000002,95.438,541.626,537.923,0.0
52367.0,STARLINK-3817,PAYLOAD,2022-11-12 19:02:51,15.08846444,0.0002697,53.215,234.014,28.833,331.2811,0.00045982,7.039e-05,0.0,0 STARLINK-3817,1 52367U 22045AN  22316.79365540  .00007039  00000-0  45982-3 0  9999,2 52367  53.2150 234.0140 0002697  28.8330 331.2811 15.08846444 32810,6917.861,95.437,541.591,537.86,0.0
52367.0,STARLINK-3817,PAYLOAD,2022-11-12 20:38:15,15.08848846,0.0002733,53.215,233.7164,29.4754,330.6392,0.00047715,7.316e-05,0.0,0 STARLINK-3817,1 52367U 22045AN  22316.85989658  .00007316  00000-0  47715-3 0  9992,2 52367  53.2150 233.7164 0002733  29.4754 330.6392 15.08848846 32826,6917.853,95.437,541.609,537.828,0.0
52367.0,STARLINK-3817,PAYLOAD,2022-11-13 10:56:43,15.0884456,0.0002912,53.2153,231.0418,29.6398,330.4759,0.00012677,1.73e-05,0.0,0 STARLINK-3817,1 52367U 22045AN  22317.45605710  .00001730  00000-0  12677-3 0  9996,2 52367  53.2153 231.0418 0002912  29.6398 330.4759 15.08844560 32911,6917.866,95.437,541.746,537.717,0.0
52367.0,STARLINK-3817,PAYLOAD,2022-11-13 17:18:15,15.08844977,0.0002917,53.215,229.8519,28.9136,331.2017,0.00014067,1.951e-05,0.0,0 STARLINK-3817,1 52367U 22045AN  22317.72101621  .00001951  00000-0  14067-3 0  9998,2 52367  53.2150 229.8519 0002917  28.9136 331.2017 15.08844977 32954,6917.865,95.437,541.748,537.712,0.0
52367.0,STARLINK-3817,PAYLOAD,2022-11-14 01:15:11,15.08837958,0.0002762,53.2146,228.3627,29.9686,330.1464,-1.872e-05,-5.86e-06,0.0,0 STARLINK-3817,1 52367U 22045AN  22318.05221773 -.00000586  00000-0 -18720-4 0  9992,2 52367  53.2146 228.3627 0002762  29.9686 330.1464 15.08837958 33004,6917.887,95.438,541.6619999999998,537.841,0.0
52367.0,STARLINK-3817,PAYLOAD,2022-11-14 10:47:30,15.088412599999998,0.0002711,53.215,226.5796,30.4981,329.6169,7.7476e-05,9.45e-06,0.0,0 STARLINK-3817,1 52367U 22045AN  22318.44965747  .00000945  00000-0  77476-4 0  9991,2 52367  53.2150 226.5796 0002711  30.4981 329.6169 15.08841260 33067,6917.877,95.437,541.617,537.866,0.0
52367.0,STARLINK-3817,PAYLOAD,2022-11-14 17:09:02,15.088471300000002,0.0002703,53.2143,225.3897,29.2709,330.8434,0.00026283,3.898e-05,0.0,0 STARLINK-3817,1 52367U 22045AN  22318.71461560  .00003898  00000-0  26283-3 0  9994,2 52367  53.2143 225.3897 0002703  29.2709 330.8434 15.08847130 33109,6917.859,95.437,541.5930000000002,537.854,0.0
52367.0,STARLINK-3817,PAYLOAD,2022-11-14 21:55:11,15.08853405,0.0002642,53.2148,224.4986,32.0902,328.0251,0.00041357,6.302e-05,0.0,0 STARLINK-3817,1 52367U 22045AN  22318.91333290  .00006302  00000-0  41357-3 0  9996,2 52367  53.2148 224.4986 0002642  32.0902 328.0251 15.08853405 33133,6917.839,95.437,541.5319999999998,537.877,0.0
52367.0,STARLINK-3817,PAYLOAD,2022-11-15 01:05:58,15.08840533,0.0002648,53.2147,223.904,29.832,330.2823,0.00013644,1.884e-05,0.0,0 STARLINK-3817,1 52367U 22045AN  22319.04581706  .00001884  00000-0  13644-3 0  9996,2 52367  53.2147 223.9040 0002648  29.8320 330.2823 15.08840533 33151,6917.879,95.438,541.576,537.9119999999998,0.0
52367.0,STARLINK-3817,PAYLOAD,2022-11-15 12:13:40,15.08851074,0.0002689,53.2141,221.8219,30.1708,329.9439,0.00035446,5.359e-05,0.0,0 STARLINK-3817,1 52367U 22045AN  22319.50949341  .00005359  00000-0  35446-3 0  9995,2 52367  53.2141 221.8219 0002689  30.1708 329.9439 15.08851074 33228,6917.847,95.437,541.572,537.851,0.0
52367.0,STARLINK-3817,PAYLOAD,2022-11-15 20:10:35,15.08842911,0.0002628999999999,53.2144,220.3355,29.1404,330.9735,6.0722e-05,6.78e-06,0.0,0 STARLINK-3817,1 52367U 22045AN  22319.84069425  .00000678  00000-0  60722-4 0  9993,2 52367  53.2144 220.3355 0002629  29.1404 330.9735 15.08842911 33277,6917.871,95.437,541.555,537.918,0.0
52367.0,STARLINK-3817,PAYLOAD,2022-11-16 02:32:08,15.08844871,0.0002513,53.2141,219.1466,29.9994,330.1142,0.00028236,4.209e-05,0.0,0 STARLINK-3817,1 52367U 22045AN  22320.10565251  .00004209  00000-0  28236-3 0  9999,2 52367  53.2141 219.1466 0002513  29.9994 330.1142 15.08844871 33313,6917.866,95.437,541.469,537.992,0.0
52367.0,STARLINK-3817,PAYLOAD,2022-11-16 10:29:03,15.08851284,0.0002578,53.2141,217.6595,30.2239,329.8901,0.00064645,0.00010018,0.0,0 STARLINK-3817,1 52367U 22045AN  22320.43685162  .00010018  00000-0  64645-3 0  9998,2 52367  53.2141 217.6595 0002578  30.2239 329.8901 15.08851284 33366,6917.846,95.437,541.494,537.927,0.0
52367.0,STARLINK-3817,PAYLOAD,2022-11-17 00:47:32,15.08844748,0.000256,53.2141,214.9824,31.8521,328.2626,0.00031721,4.764e-05,0.0,0 STARLINK-3817,1 52367U 22045AN  22321.03301193  .00004764  00000-0  31721-3 0  9994,2 52367  53.2141 214.9824 0002560  31.8521 328.2626 15.08844748 33457,6917.866,95.437,541.502,537.96,0.0
52367.0,STARLINK-3817,PAYLOAD,2022-11-17 19:52:10,15.08840865,0.000272,53.2138,211.4142,33.076,327.0402,0.00023519,3.457e-05,0.0,0 STARLINK-3817,1 52367U 22045AN  22321.82789364  .00003457  00000-0  23519-3 0  9995,2 52367  53.2138 211.4142 0002720  33.0760 327.0402 15.08840865 33573,6917.878000000002,95.437,541.624,537.861,0.0
52367.0,STARLINK-3817,PAYLOAD,2022-11-18 02:13:42,15.08842291,0.0002748,53.2146,210.2243,32.9458,327.1705,0.00014312,1.99e-05,0.0,0 STARLINK-3817,1 52367U 22045AN  22322.09285366  .00001990  00000-0  14312-3 0  9999,2 52367  53.2146 210.2243 0002748  32.9458 327.1705 15.08842291 33610,6917.873000000001,95.437,541.639,537.837,0.0
52367.0,STARLINK-3817,PAYLOAD,2022-11-18 19:42:57,15.08842743,0.0002654,53.2158,206.9507,33.5469,326.569,0.00015581,2.192e-05,0.0,0 STARLINK-3817,1 52367U 22045AN  22322.82149325  .00002192  00000-0  15581-3 0  9998,2 52367  53.2158 206.9507 0002654  33.5469 326.5690 15.08842743 33723,6917.871999999999,95.437,541.573,537.901,0.0
52367.0,STARLINK-3817,PAYLOAD,2022-11-19 02:04:29,15.08841183,0.0002659,53.2159,205.762,33.6841,326.432,9.847e-05,1.279e-05,0.0,0 STARLINK-3817,1 52367U 22045AN  22323.08645417  .00001279  00000-0  98470-4 0  9994,2 52367  53.2159 205.7620 0002659  33.6841 326.4320 15.08841183 33767,6917.877,95.437,541.581,537.9019999999998,0.0
52367.0,STARLINK-3817,PAYLOAD,2022-11-19 14:47:34,15.08850826,0.000278,53.2149,203.3851,30.6776,329.4378,0.00025166,3.72e-05,0.0,0 STARLINK-3817,1 52367U 22045AN  22323.61636902  .00003720  00000-0  25166-3 0  9996,2 52367  53.2149 203.3851 0002780  30.6776 329.4378 15.08850826 33844,6917.847,95.437,541.635,537.789,0.0
52367.0,STARLINK-3817,PAYLOAD,2022-11-19 19:33:43,15.08850674,0.0002788999999999,53.2149,202.4929,31.2031,328.9126,0.00021935,3.205e-05,0.0,0 STARLINK-3817,1 52367U 22045AN  22323.81508726  .00003205  00000-0  21935-3 0  9998,2 52367  53.2149 202.4929 0002789  31.2031 328.9126 15.08850674 33879,6917.848000000001,95.437,541.6419999999998,537.783,0.0
52367.0,STARLINK-3817,PAYLOAD,2022-11-20 11:27:34,15.08852027,0.0002853,53.2147,199.5197,32.7211,327.3957,-9.9893e-05,-1.879e-05,0.0,0 STARLINK-3817,1 52367U 22045AN  22324.47748410 -.00001879  00000-0 -99893-4 0  9993,2 52367  53.2147 199.5197 0002853  32.7211 327.3957 15.08852027 33978,6917.844,95.437,541.682,537.735,0.0
52367.0,STARLINK-3817,PAYLOAD,2022-11-20 20:59:54,15.08837103,0.0002772,53.2147,197.7356,31.0114,329.1041,4.5409e-05,4.34e-06,0.0,0 STARLINK-3817,1 52367U 22045AN  22324.87493259  .00000434  00000-0  45409-4 0  9993,2 52367  53.2147 197.7356 0002772  31.0114 329.1041 15.08837103 34039,6917.889,95.438,541.672,537.837,0.0
52367.0,STARLINK-3817,PAYLOAD,2022-11-20 22:35:17,15.08838216,0.0002793,53.2148,197.4382,31.0808,329.0349,-4.0469e-06,-3.53e-06,0.0,0 STARLINK-3817,1 52367U 22045AN  22324.94117085 -.00000353  00000-0 -40469-5 0  9995,2 52367  53.2148 197.4382 0002793  31.0808 329.0349 15.08838216 34046,6917.886,95.438,541.683,537.819,0.0
